{"type": "FeatureCollection", "features": [ {"type": "Feature", "properties": {"norad_id": 29906, "name": "FENGYUN 1C DEB", "group": "fengyun-1c-debris", "lat": -69.9552043597357, "lon": -116.63887200016423, "alt_km": 737.5102974789452, "timestamp": "2025-12-10T21:43:22.360057+00:00", "meta": {"OBJECT_NAME": "FENGYUN 1C DEB", "OBJECT_ID": "1999-025HC", "EPOCH": "2025-12-10T13:56:27.098016", "MEAN_MOTION": 14.49572783, "ECCENTRICITY": 0.00371969, "INCLINATION": 98.7052, "RA_OF_ASC_NODE": 87.8568, "ARG_OF_PERICENTER": 155.5495, "MEAN_ANOMALY": 204.7472, "EPHEMERIS_TYPE": 0, "CLASSIFICATION_TYPE": "U", "NORAD_CAT_ID": 29906, "ELEMENT_SET_NO": 999, "REV_AT_EPOCH": 98126, "BSTAR": 0.0041312804, "MEAN_MOTION_DOT": 0.00015983, "MEAN_MOTION_DDOT": 0}, "tle": {"line1": "1 29906U 99025HC  25344.58086919  .00015983  00000+0  41313-2 0  9994", "line2": "2 29906  98.7052  87.8568 0037196 155.5495 204.7472 14.49572783981263"}}, "geometry": {"type": "Point", "coordinates": [-116.63887200016423, -69.9552043597357]}}, {"type": "Feature", "properties": {"norad_id": 29907, "name": "FENGYUN 1C DEB", "group": "fengyun-1c-debris", "lat": -69.67715513724883, "lon": 77.22789271477923, "alt_km": 810.454459388241, "timestamp": "2025-12-10T21:43:22.360067+00:00", "meta": {"OBJECT_NAME": "FENGYUN 1C DEB", "OBJECT_ID": "1999-025HD", "EPOCH": "2025-12-10T15:59:26.688768", "MEAN_MOTION": 14.1161498, "ECCENTRICITY": 0.00838387, "INCLINATION": 99.1113, "RA_OF_ASC_NODE": 51.3085, "ARG_OF_PERICENTER": 255.2817, "MEAN_ANOMALY": 259.4049, "EPHEMERIS_TYPE": 0, "CLASSIFICATION_TYPE": "U", "NORAD_CAT_ID": 29907, "ELEMENT_SET_NO": 999, "REV_AT_EPOCH": 96569, "BSTAR": 0.0023624553, "MEAN_MOTION_DOT": 4.393e-05, "MEAN_MOTION_DDOT": 0}, "tle": {"line1": "1 29907U 99025HD  25344.66628112  .00004393  00000+0  23625-2 0  9990", "line2": "2 29907  99.1113  51.3085 0083838 255.2817 259.4049 14.11614980965698"}}, "geometry": {"type": "Point", "coordinates": [77.22789271477923, -69.67715513724883]}}, {"type": "Feature", "properties": {"norad_id": 29909, "name": "FENGYUN 1C DEB", "group": "fengyun-1c-debris", "lat": -67.65837482185493, "lon": 110.34600239823341, "alt_km": 716.4794346362432, "timestamp": "2025-12-10T21:43:22.360077+00:00", "meta": {"OBJECT_NAME": "FENGYUN 1C DEB", "OBJECT_ID": "1999-025HF", "EPOCH": "2025-12-10T05:47:30.138720", "MEAN_MOTION": 14.5505053, "ECCENTRICITY": 0.0038348, "INCLINATION": 98.6347, "RA_OF_ASC_NODE": 87.9609, "ARG_OF_PERICENTER": 23.2001, "MEAN_ANOMALY": 32.8757, "EPHEMERIS_TYPE": 0, "CLASSIFICATION_TYPE": "U", "NORAD_CAT_ID": 29909, "ELEMENT_SET_NO": 999, "REV_AT_EPOCH": 98369, "BSTAR": 0.0031673, "MEAN_MOTION_DOT": 0.00013765, "MEAN_MOTION_DDOT": 0}, "tle": {"line1": "1 29909U 99025HF  25344.24132105  .00013765  00000+0  31673-2 0  9993", "line2": "2 29909  98.6347  87.9609 0038348  23.2001  32.8757 14.55050530983696"}}, "geometry": {"type": "Point", "coordinates": [110.34600239823341, -67.65837482185493]}}, {"type": "Feature", "properties": {"norad_id": 29911, "name": "FENGYUN 1C DEB", "group": "fengyun-1c-debris", "lat": -43.52987515545416, "lon": 36.42785136441701, "alt_km": 854.4325159452301, "timestamp": "2025-12-10T21:43:22.360088+00:00", "meta": {"OBJECT_NAME": "FENGYUN 1C DEB", "OBJECT_ID": "1999-025HH", "EPOCH": "2025-12-10T14:11:30.361632", "MEAN_MOTION": 14.18844322, "ECCENTRICITY": 0.00274083, "INCLINATION": 98.7157, "RA_OF_ASC_NODE": 27.7403, "ARG_OF_PERICENTER": 156.8777, "MEAN_ANOMALY": 357.0148, "EPHEMERIS_TYPE": 0, "CLASSIFICATION_TYPE": "U", "NORAD_CAT_ID": 29911, "ELEMENT_SET_NO": 999, "REV_AT_EPOCH": 97400, "BSTAR": 0.0010747068, "MEAN_MOTION_DOT": 2.202e-05, "MEAN_MOTION_DDOT": 0}, "tle": {"line1": "1 29911U 99025HH  25344.59132363  .00002202  00000+0  10747-2 0  9993", "line2": "2 29911  98.7157  27.7403 0027408 156.8777 357.0148 14.18844322974001"}}, "geometry": {"type": "Point", "coordinates": [36.42785136441701, -43.52987515545416]}}, {"type": "Feature", "properties": {"norad_id": 29912, "name": "FENGYUN 1C DEB", "group": "fengyun-1c-debris", "lat": 64.52202283465071, "lon": -78.86408812252493, "alt_km": 752.9693674529472, "timestamp": "2025-12-10T21:43:22.360098+00:00", "meta": {"OBJECT_NAME": "FENGYUN 1C DEB", "OBJECT_ID": "1999-025HJ", "EPOCH": "2025-12-10T08:04:48.317376", "MEAN_MOTION": 14.42922576, "ECCENTRICITY": 0.00428626, "INCLINATION": 98.7381, "RA_OF_ASC_NODE": 81.7227, "ARG_OF_PERICENTER": 225.9657, "MEAN_ANOMALY": 177.338, "EPHEMERIS_TYPE": 0, "CLASSIFICATION_TYPE": "U", "NORAD_CAT_ID": 29912, "ELEMENT_SET_NO": 999, "REV_AT_EPOCH": 98004, "BSTAR": 0.0035385866, "MEAN_MOTION_DOT": 0.00011934, "MEAN_MOTION_DDOT": 0}, "tle": {"line1": "1 29912U 99025HJ  25344.33667034  .00011934  00000+0  35386-2 0  9992", "line2": "2 29912  98.7381  81.7227 0042862 225.9657 177.3380 14.42922576980048"}}, "geometry": {"type": "Point", "coordinates": [-78.86408812252493, 64.52202283465071]}}, {"type": "Feature", "properties": {"norad_id": 29913, "name": "FENGYUN 1C DEB", "group": "fengyun-1c-debris", "lat": 77.49521044001047, "lon": -151.97021930441443, "alt_km": 905.8863479531428, "timestamp": "2025-12-10T21:43:22.360108+00:00", "meta": {"OBJECT_NAME": "FENGYUN 1C DEB", "OBJECT_ID": "1999-025HK", "EPOCH": "2025-12-10T11:44:20.211648", "MEAN_MOTION": 14.07378037, "ECCENTRICITY": 0.00619005, "INCLINATION": 98.7875, "RA_OF_ASC_NODE": 343.4025, "ARG_OF_PERICENTER": 277.9141, "MEAN_ANOMALY": 234.5189, "EPHEMERIS_TYPE": 0, "CLASSIFICATION_TYPE": "U", "NORAD_CAT_ID": 29913, "ELEMENT_SET_NO": 999, "REV_AT_EPOCH": 96933, "BSTAR": 0.00043430314, "MEAN_MOTION_DOT": 6.99e-06, "MEAN_MOTION_DDOT": 0}, "tle": {"line1": "1 29913U 99025HK  25344.48912282  .00000699  00000+0  43430-3 0  9993", "line2": "2 29913  98.7875 343.4025 0061900 277.9141 234.5189 14.07378037969330"}}, "geometry": {"type": "Point", "coordinates": [-151.97021930441443, 77.49521044001047]}}, {"type": "Feature", "properties": {"norad_id": 29914, "name": "FENGYUN 1C DEB", "group": "fengyun-1c-debris", "lat": -80.80518838510325, "lon": 119.39350900854124, "alt_km": 912.6123888853026, "timestamp": "2025-12-10T21:43:22.360118+00:00", "meta": {"OBJECT_NAME": "FENGYUN 1C DEB", "OBJECT_ID": "1999-025HL", "EPOCH": "2025-12-10T08:33:11.270880", "MEAN_MOTION": 14.03131576, "ECCENTRICITY": 0.0036502, "INCLINATION": 98.845, "RA_OF_ASC_NODE": 13.0008, "ARG_OF_PERICENTER": 121.5729, "MEAN_ANOMALY": 255.3907, "EPHEMERIS_TYPE": 0, "CLASSIFICATION_TYPE": "U", "NORAD_CAT_ID": 29914, "ELEMENT_SET_NO": 999, "REV_AT_EPOCH": 96753, "BSTAR": 0.00016451243, "MEAN_MOTION_DOT": 2.15e-06, "MEAN_MOTION_DDOT": 0}, "tle": {"line1": "1 29914U 99025HL  25344.35638045  .00000215  00000+0  16451-3 0  9999", "line2": "2 29914  98.8450  13.0008 0036502 121.5729 255.3907 14.03131576967538"}}, "geometry": {"type": "Point", "coordinates": [119.39350900854124, -80.80518838510325]}}, {"type": "Feature", "properties": {"norad_id": 29916, "name": "FENGYUN 1C DEB", "group": "fengyun-1c-debris", "lat": -29.39583015832118, "lon": 179.0338302867579, "alt_km": 929.2621129674362, "timestamp": "2025-12-10T21:43:22.360128+00:00", "meta": {"OBJECT_NAME": "FENGYUN 1C DEB", "OBJECT_ID": "1999-025HN", "EPOCH": "2025-12-09T00:42:55.660032", "MEAN_MOTION": 13.56977253, "ECCENTRICITY": 0.0271162, "INCLINATION": 99.1951, "RA_OF_ASC_NODE": 2.5151, "ARG_OF_PERICENTER": 268.0226, "MEAN_ANOMALY": 147.836, "EPHEMERIS_TYPE": 0, "CLASSIFICATION_TYPE": "U", "NORAD_CAT_ID": 29916, "ELEMENT_SET_NO": 999, "REV_AT_EPOCH": 93402, "BSTAR": 0.000951251, "MEAN_MOTION_DOT": 8.15e-06, "MEAN_MOTION_DDOT": 0}, "tle": {"line1": "1 29916U 99025HN  25343.02981088  .00000815  00000+0  95125-3 0  9993", "line2": "2 29916  99.1951   2.5151 0271162 268.0226 147.8360 13.56977253934027"}}, "geometry": {"type": "Point", "coordinates": [179.0338302867579, -29.39583015832118]}}, {"type": "Feature", "properties": {"norad_id": 29917, "name": "FENGYUN 1C DEB", "group": "fengyun-1c-debris", "lat": -36.433869714003094, "lon": 20.0574453915814, "alt_km": 993.8730422050321, "timestamp": "2025-12-10T21:43:22.360139+00:00", "meta": {"OBJECT_NAME": "FENGYUN 1C DEB", "OBJECT_ID": "1999-025HP", "EPOCH": "2025-12-10T09:15:45.351648", "MEAN_MOTION": 13.70402558, "ECCENTRICITY": 0.02227217, "INCLINATION": 98.8765, "RA_OF_ASC_NODE": 206.2019, "ARG_OF_PERICENTER": 130.605, "MEAN_ANOMALY": 43.7279, "EPHEMERIS_TYPE": 0, "CLASSIFICATION_TYPE": "U", "NORAD_CAT_ID": 29917, "ELEMENT_SET_NO": 999, "REV_AT_EPOCH": 94098, "BSTAR": 0.0014421618, "MEAN_MOTION_DOT": 1.481e-05, "MEAN_MOTION_DDOT": 0}, "tle": {"line1": "1 29917U 99025HP  25344.38594157  .00001481  00000+0  14422-2 0  9991", "line2": "2 29917  98.8765 206.2019 0222721 130.6050  43.7279 13.70402558940981"}}, "geometry": {"type": "Point", "coordinates": [20.0574453915814, -36.433869714003094]}}, {"type": "Feature", "properties": {"norad_id": 29918, "name": "FENGYUN 1C DEB", "group": "fengyun-1c-debris", "lat": -14.2322322831997, "lon": 69.56504174352058, "alt_km": 775.9762598055086, "timestamp": "2025-12-10T21:43:22.360149+00:00", "meta": {"OBJECT_NAME": "FENGYUN 1C DEB", "OBJECT_ID": "1999-025HQ", "EPOCH": "2025-12-10T11:50:24.505152", "MEAN_MOTION": 14.33570276, "ECCENTRICITY": 0.00127904, "INCLINATION": 98.8541, "RA_OF_ASC_NODE": 66.8781, "ARG_OF_PERICENTER": 323.5941, "MEAN_ANOMALY": 58.1217, "EPHEMERIS_TYPE": 0, "CLASSIFICATION_TYPE": "U", "NORAD_CAT_ID": 29918, "ELEMENT_SET_NO": 999, "REV_AT_EPOCH": 97762, "BSTAR": 0.0022402394, "MEAN_MOTION_DOT": 6.165e-05, "MEAN_MOTION_DDOT": 0}, "tle": {"line1": "1 29918U 99025HQ  25344.49333918  .00006165  00000+0  22402-2 0  9991", "line2": "2 29918  98.8541  66.8781 0012790 323.5941  58.1217 14.33570276977621"}}, "geometry": {"type": "Point", "coordinates": [69.56504174352058, -14.2322322831997]}}]}